{
  "norad_id": 48292,
  "name": "STARLINK-2542",
  "history": [
    {
      "epoch": "2026-03-28T22:01:05.656512Z",
      "apogee_km": 476.0113192790095,
      "perigee_km": 474.350349168707,
      "latitude_deg": 3.940471009542672e-05,
      "longitude_deg": -170.64233227762958,
      "height_km": 476.04737230918147,
      "semi_major_axis_km": 6853.317834223858,
      "eccentricity": 0.00012118,
      "inclination_deg": 53.1626,
      "raan_deg": 345.9622,
      "arg_perigee_deg": 87.7989,
      "mean_anomaly_deg": 272.3151,
      "mean_motion_rev_day": 15.30211466
    },
    {
      "epoch": "2026-03-28T23:35:08.681568Z",
      "apogee_km": 476.02258447363147,
      "perigee_km": 474.3298161131588,
      "latitude_deg": -2.1838300221738288e-05,
      "longitude_deg": 165.47674244921237,
      "height_km": 476.0666324639743,
      "semi_major_axis_km": 6853.313200293395,
      "eccentricity": 0.0001235,
      "inclination_deg": 53.1625,
      "raan_deg": 345.6583,
      "arg_perigee_deg": 89.4606,
      "mean_anomaly_deg": 270.6536,
      "mean_motion_rev_day": 15.30213018
    },
    {
      "epoch": "2026-03-29T23:05:57.699168Z",
      "apogee_km": 476.06307944879245,
      "perigee_km": 474.4221062390816,
      "latitude_deg": 2.7490626290371827e-05,
      "longitude_deg": 167.25696978499124,
      "height_km": 476.09026750764787,
      "semi_major_axis_km": 6853.379592843937,
      "eccentricity": 0.00011972,
      "inclination_deg": 53.1622,
      "raan_deg": 341.1084,
      "arg_perigee_deg": 86.455,
      "mean_anomaly_deg": 273.6588,
      "mean_motion_rev_day": 15.30190782
    },
    {
      "epoch": "2026-03-30T10:04:20.045280Z",
      "apogee_km": 476.1441072992775,
      "perigee_km": 474.3411201904937,
      "latitude_deg": -3.449045033142387e-05,
      "longitude_deg": 0.08857539507344804,
      "height_km": 476.1653613027778,
      "semi_major_axis_km": 6853.379613744885,
      "eccentricity": 0.00013154,
      "inclination_deg": 53.1621,
      "raan_deg": 338.9838,
      "arg_perigee_deg": 91.5578,
      "mean_anomaly_deg": 268.5573,
      "mean_motion_rev_day": 15.30190775
    },
    {
      "epoch": "2026-03-30T22:36:44.304480Z",
      "apogee_km": 475.975832515006,
      "perigee_km": 474.38723327908065,
      "latitude_deg": 5.395066210769961e-05,
      "longitude_deg": 169.04765942958235,
      "height_km": 475.8407885138736,
      "semi_major_axis_km": 6853.318532897043,
      "eccentricity": 0.0001159,
      "inclination_deg": 53.1617,
      "raan_deg": 336.5589,
      "arg_perigee_deg": 72.4715,
      "mean_anomaly_deg": 287.6413,
      "mean_motion_rev_day": 15.30211232
    },
    {
      "epoch": "2026-03-31T09:35:06.904608Z",
      "apogee_km": 476.0445810360616,
      "perigee_km": 474.39634856577777,
      "latitude_deg": -1.6591767359533647e-05,
      "longitude_deg": 1.8794974856394602,
      "height_km": 476.17517268017116,
      "semi_major_axis_km": 6853.35746480092,
      "eccentricity": 0.00012025,
      "inclination_deg": 53.16,
      "raan_deg": 334.4356,
      "arg_perigee_deg": 93.9337,
      "mean_anomaly_deg": 266.1801,
      "mean_motion_rev_day": 15.30198193
    },
    {
      "epoch": "2026-04-01T01:15:40.606848Z",
      "apogee_km": 476.06375899876,
      "perigee_km": 474.4819919994943,
      "latitude_deg": -5.463570768284623e-05,
      "longitude_deg": 123.06075244054341,
      "height_km": 476.1205234733556,
      "semi_major_axis_km": 6853.409875499126,
      "eccentricity": 0.0001154,
      "inclination_deg": 53.161,
      "raan_deg": 331.4011,
      "arg_perigee_deg": 86.3247,
      "mean_anomaly_deg": 273.7885,
      "mean_motion_rev_day": 15.3018064
    },
    {
      "epoch": "2026-04-02T21:09:09.777888Z",
      "apogee_km": 476.1052571548644,
      "perigee_km": 474.3905402532091,
      "latitude_deg": 1.2451695072254475e-05,
      "longitude_deg": 174.39050096367413,
      "height_km": 476.25922440320574,
      "semi_major_axis_km": 6853.3848987040365,
      "eccentricity": 0.0001251,
      "inclination_deg": 53.1601,
      "raan_deg": 322.9049,
      "arg_perigee_deg": 97.5876,
      "mean_anomaly_deg": 262.5267,
      "mean_motion_rev_day": 15.30189005
    },
    {
      "epoch": "2026-04-02T22:43:12.823680Z",
      "apogee_km": 476.22466442216955,
      "perigee_km": 474.2497961039762,
      "latitude_deg": -2.614013834637615e-05,
      "longitude_deg": 150.50460599818413,
      "height_km": 476.2152161415653,
      "semi_major_axis_km": 6853.374230263073,
      "eccentricity": 0.00014408,
      "inclination_deg": 53.1619,
      "raan_deg": 322.5961,
      "arg_perigee_deg": 94.6434,
      "mean_anomaly_deg": 265.4731,
      "mean_motion_rev_day": 15.30192578
    },
    {
      "epoch": "2026-04-03T20:39:57.386304Z",
      "apogee_km": 476.06637355340627,
      "perigee_km": 474.4174505871615,
      "latitude_deg": -4.110887190356883e-05,
      "longitude_deg": 176.173538857301,
      "height_km": 476.3141132093827,
      "semi_major_axis_km": 6853.378912070283,
      "eccentricity": 0.0001203,
      "inclination_deg": 53.16,
      "raan_deg": 318.352,
      "arg_perigee_deg": 102.1836,
      "mean_anomaly_deg": 257.9299,
      "mean_motion_rev_day": 15.3019101
    },
    {
      "epoch": "2026-04-04T01:22:07.049856Z",
      "apogee_km": 476.0578393421847,
      "perigee_km": 474.43948085240845,
      "latitude_deg": 4.4249591546618184e-05,
      "longitude_deg": 104.53250520690075,
      "height_km": 476.4613408543106,
      "semi_major_axis_km": 6853.385660097296,
      "eccentricity": 0.00011807,
      "inclination_deg": 53.1592,
      "raan_deg": 317.4443,
      "arg_perigee_deg": 112.8685,
      "mean_anomaly_deg": 247.2441,
      "mean_motion_rev_day": 15.3018875
    }
  ]
}